[{"OBJECT_NAME":"FALCONSAT-10","OBJECT_ID":"2023-174AM","EPOCH":"2026-03-09T16:51:34.085376","MEAN_MOTION":15.26670596,"ECCENTRICITY":0.00089318,"INCLINATION":97.3865,"RA_OF_ASC_NODE":145.7938,"ARG_OF_PERICENTER":169.5942,"MEAN_ANOMALY":190.5483,"EPHEMERIS_TYPE":0,"CLASSIFICATION_TYPE":"U","NORAD_CAT_ID":58291,"ELEMENT_SET_NO":999,"REV_AT_EPOCH":12958,"BSTAR":0.00025968794,"MEAN_MOTION_DOT":6.748e-5,"MEAN_MOTION_DDOT":0},{"OBJECT_NAME":"STARLINK-32522","OBJECT_ID":"2024-210Y","EPOCH":"2026-03-09T07:35:59.227872","MEAN_MOTION":15.27583829,"ECCENTRICITY":6.555e-5,"INCLINATION":42.9978,"RA_OF_ASC_NODE":181.8649,"ARG_OF_PERICENTER":207.0434,"MEAN_ANOMALY":153.0384,"EPHEMERIS_TYPE":0,"CLASSIFICATION_TYPE":"U","NORAD_CAT_ID":61981,"ELEMENT_SET_NO":999,"REV_AT_EPOCH":7482,"BSTAR":0.0013211828,"MEAN_MOTION_DOT":0.00036277,"MEAN_MOTION_DDOT":0}]
